NORAD_CAT_ID,OBJECT_NAME,OBJECT_TYPE,EPOCH,MEAN_MOTION,ECCENTRICITY,INCLINATION,RA_OF_ASC_NODE,ARG_OF_PERICENTER,MEAN_ANOMALY,BSTAR,MEAN_MOTION_DOT,MEAN_MOTION_DDOT,TLE_LINE0,TLE_LINE1,TLE_LINE2,SEMIMAJOR_AXIS,PERIOD,APOGEE,PERIGEE,DECAYED
55783.0,STARLINK-5825,PAYLOAD,2023-06-28 00:48:40,15.69919298,0.0003907,69.9968,188.2764,273.3326,86.7422,1.2678e-05,1.311e-05,0.0,0 STARLINK-5825,1 55783U 23028AU  23179.03380488  .00001311  00000-0  12678-4 0  9993,2 55783  69.9968 188.2764 0003907 273.3326  86.7422 15.69919298 18926,6737.265,91.724,361.762,356.498,0.0
55783.0,STARLINK-5825,PAYLOAD,2023-06-29 02:48:27,15.69923726,0.0003433,69.9976,185.2316,267.2362,92.8441,3.0419e-06,1.53e-06,0.0,0 STARLINK-5825,1 55783U 23028AU  23180.11699062  .00000153  00000-0  30419-5 0  9992,2 55783  69.9976 185.2316 0003433 267.2362  92.8441 15.69923726 19090,6737.252,91.724,361.43,356.804,0.0
55783.0,STARLINK-5825,PAYLOAD,2023-06-29 10:27:13,15.69931466,0.0003494,69.9974,184.3356,268.7075,91.372,-2.3901e-06,-5e-06,0.0,0 STARLINK-5825,1 55783U 23028AU  23180.43556956 -.00000500  00000-0 -23901-5 0  9997,2 55783  69.9974 184.3356 0003494 268.7075  91.3720 15.69931466 19146,6737.23,91.724,361.449,356.741,0.0
55783.0,STARLINK-5825,PAYLOAD,2023-06-30 09:23:30,15.69907979,0.0003291,69.9976,181.649,264.3611,95.7209,3.1044e-05,3.519e-05,0.0,0 STARLINK-5825,1 55783U 23028AU  23181.39132880  .00003519  00000-0  31044-4 0  9996,2 55783  69.9976 181.6490 0003291 264.3611  95.7209 15.69907979 19298,6737.297,91.725,361.38,356.945,0.0
55783.0,STARLINK-5825,PAYLOAD,2023-07-01 08:19:48,15.70050353,0.0003463,69.9989,178.9648,257.6825,102.3983,-0.00015091,-0.00018414,0.0,0 STARLINK-5825,1 55783U 23028AU  23182.34709116 -.00018414  00000-0 -15091-3 0  9999,2 55783  69.9989 178.9648 0003463 257.6825 102.3983 15.70050353 19447,6736.89,91.717,361.088,356.422,0.0
55783.0,STARLINK-5825,PAYLOAD,2023-07-01 09:51:34,15.69892526,0.0003197,69.9976,178.783,273.0846,86.9984,-2.8008e-05,-3.574e-05,0.0,0 STARLINK-5825,1 55783U 23028AU  23182.41081653 -.00003574  00000-0 -28008-4 0  9990,2 55783  69.9976 178.7830 0003197 273.0846  86.9984 15.69892526 19456,6737.341,91.726,361.36,357.053,0.0
55783.0,STARLINK-5825,PAYLOAD,2023-07-02 01:09:04,15.69915832,0.0003274,69.9968,176.992,269.7467,90.3354,1.8837e-06,1.4e-07,0.0,0 STARLINK-5825,1 55783U 23028AU  23183.04796944  .00000014  00000-0  18837-5 0  9990,2 55783  69.9968 176.9920 0003274 269.7467  90.3354 15.69915832 19551,6737.275,91.725,361.346,356.934,0.0
55783.0,STARLINK-5825,PAYLOAD,2023-07-02 08:47:49,15.69922977,0.0003032,69.9985,176.0951,265.5512,94.5337,2.4433e-05,2.726e-05,0.0,0 STARLINK-5825,1 55783U 23028AU  23183.36654574  .00002726  00000-0  24433-4 0  9997,2 55783  69.9985 176.0951 0003032 265.5512  94.5337 15.69922977 19603,6737.254,91.724,361.162,357.077,0.0
55783.0,STARLINK-5825,PAYLOAD,2023-07-03 01:37:05,15.69933261,0.0003012,69.9997,174.1278,263.2047,96.8806,2.5398e-05,2.843e-05,0.0,0 STARLINK-5825,1 55783U 23028AU  23184.06742231  .00002843  00000-0  25398-4 0  9994,2 55783  69.9997 174.1278 0003012 263.2047  96.8806 15.69933261 19719,6737.225,91.724,361.119,357.061,0.0
55783.0,STARLINK-5825,PAYLOAD,2023-07-03 09:15:51,15.69927375,0.0003306,69.9979,173.2297,271.4535,88.6282,6.5078e-06,5.7e-06,0.0,0 STARLINK-5825,1 55783U 23028AU  23184.38601238  .00000570  00000-0  65078-5 0  9995,2 55783  69.9979 173.2297 0003306 271.4535  88.6282 15.69927375 19760,6737.242,91.724,361.334,356.879,0.0
55783.0,STARLINK-5825,PAYLOAD,2023-07-03 16:54:37,15.6990752,0.0003352,69.9977,172.3339,275.5992,84.4821,2.6486e-05,2.971e-05,0.0,0 STARLINK-5825,1 55783U 23028AU  23184.70460508  .00002971  00000-0  26486-4 0  9990,2 55783  69.9977 172.3339 0003352 275.5992  84.4821 15.69907520 19817,6737.299,91.725,361.422,356.905,0.0
55783.0,STARLINK-5825,PAYLOAD,2023-07-04 02:05:08,15.69922168,0.0003376,69.9989,171.2588,275.0082,85.0729,1.4632e-05,1.547e-05,0.0,0 STARLINK-5825,1 55783U 23028AU  23185.08690031  .00001547  00000-0  14632-4 0  9996,2 55783  69.9989 171.2588 0003376 275.0082  85.0729 15.69922168 19870,6737.257,91.724,361.396,356.847,0.0
55783.0,STARLINK-5825,PAYLOAD,2023-07-04 09:43:53,15.69932196,0.0003277,69.9982,170.3636,272.1062,87.9758,1.5295e-05,1.627e-05,0.0,0 STARLINK-5825,1 55783U 23028AU  23185.40547729  .00001627  00000-0  15295-4 0  9992,2 55783  69.9982 170.3636 0003277 272.1062  87.9758 15.69932196 19924,6737.228,91.724,361.301,356.885,0.0
55783.0,STARLINK-5825,PAYLOAD,2023-07-05 01:01:24,15.69925615,0.0003402,69.9981,168.5724,271.2874,88.7932,4.348e-06,3.1e-06,0.0,0 STARLINK-5825,1 55783U 23028AU  23186.04264725  .00000310  00000-0  43480-5 0  9991,2 55783  69.9981 168.5724 0003402 271.2874  88.7932 15.69925615 20025,6737.247,91.724,361.404,356.82,0.0
55783.0,STARLINK-5825,PAYLOAD,2023-07-05 08:40:11,15.69912551,0.0003012,69.9986,167.677,268.1063,91.9787,3.2607e-06,1.79e-06,0.0,0 STARLINK-5825,1 55783U 23028AU  23186.36124092  .00000179  00000-0  32607-5 0  9990,2 55783  69.9986 167.6770 0003012 268.1063  91.9787 15.69912551 20077,6737.284,91.725,361.178,357.12,0.0
55783.0,STARLINK-5825,PAYLOAD,2023-07-05 16:18:55,15.6992431,0.0003599,69.9984,166.7807,269.6403,90.438,1.7482e-05,1.89e-05,0.0,0 STARLINK-5825,1 55783U 23028AU  23186.67981401  .00001890  00000-0  17482-4 0  9993,2 55783  69.9984 166.7807 0003599 269.6403  90.4380 15.69924310 20125,6737.251,91.724,361.54,356.691,0.0
55783.0,STARLINK-5825,PAYLOAD,2023-07-07 08:04:30,15.69910416,0.0003693,69.9998,162.1244,332.7046,27.3955,-1.0321e-05,-1.453e-05,0.0,0 STARLINK-5825,1 55783U 23028AU  23188.33646421 -.00001453  00000-0 -10321-4 0  9990,2 55783  69.9998 162.1244 0003693 332.7046  27.3955 15.69910416 20382,6737.29,91.725,361.643,356.667,0.0
55783.0,STARLINK-5825,PAYLOAD,2023-07-07 23:22:00,15.69927191,0.0003617,70.0012,160.3346,272.9497,87.1285,2.2606e-05,2.507e-05,0.0,0 STARLINK-5825,1 55783U 23028AU  23188.97362038  .00002507  00000-0  22606-4 0  9997,2 55783  70.0012 160.3346 0003617 272.9497  87.1285 15.69927191 20485,6737.242,91.724,361.544,356.67,0.0
55783.0,STARLINK-5825,PAYLOAD,2023-07-09 04:25:18,15.69923738,0.0002891,70.0001,156.9307,268.7958,91.2906,4.8254e-05,5.593e-05,0.0,0 STARLINK-5825,1 55783U 23028AU  23190.18423630  .00005593  00000-0  48254-4 0  9994,2 55783  70.0001 156.9307 0002891 268.7958  91.2906 15.69923738 20679,6737.252,91.724,361.065,357.169,0.0
55783.0,STARLINK-5825,PAYLOAD,2023-07-10 06:25:04,15.69936523,0.0003312,69.9998,153.8832,268.2581,91.8236,2.4848e-05,2.778e-05,0.0,0 STARLINK-5825,1 55783U 23028AU  23191.26741158  .00002778  00000-0  24848-4 0  9997,2 55783  69.9998 153.8832 0003312 268.2581  91.8236 15.69936523 20843,6737.216,91.723,361.312,356.849,0.0
55783.0,STARLINK-5825,PAYLOAD,2023-07-11 06:53:07,15.69925119,0.0003161,69.9988,151.0162,273.6711,86.4123,3.2806e-06,1.82e-06,0.0,0 STARLINK-5825,1 55783U 23028AU  23192.28688713  .00000182  00000-0  32806-5 0  9998,2 55783  69.9988 151.0162 0003161 273.6711  86.4123 15.69925119 21008,6737.248,91.724,361.243,356.984,0.0
55783.0,STARLINK-5825,PAYLOAD,2023-07-13 06:17:26,15.69920687,0.0003176,69.9999,145.464,261.1076,98.976,5.2708e-06,4.21e-06,0.0,0 STARLINK-5825,1 55783U 23028AU  23194.26210883  .00000421  00000-0  52708-5 0  9996,2 55783  69.9999 145.4640 0003176 261.1076  98.9760 15.69920687 21314,6737.261,91.724,361.266,356.986,0.0
55783.0,STARLINK-5825,PAYLOAD,2023-07-13 23:06:42,15.69929873,0.0003393,69.9997,143.4927,259.9662,100.1151,2.5636e-05,2.872e-05,0.0,0 STARLINK-5825,1 55783U 23028AU  23194.96298792  .00002872  00000-0  25636-4 0  9999,2 55783  69.9997 143.4927 0003393 259.9662 100.1151 15.69929873 21423,6737.235,91.724,361.386,356.814,0.0
55783.0,STARLINK-5825,PAYLOAD,2023-07-14 06:45:28,15.69923916,0.0003405,69.9996,142.5975,260.8578,99.2233,3.9696e-05,4.563e-05,0.0,0 STARLINK-5825,1 55783U 23028AU  23195.28157484  .00004563  00000-0  39696-4 0  9997,2 55783  69.9996 142.5975 0003405 260.8578  99.2233 15.69923916 21472,6737.252,91.724,361.411,356.823,0.0
55783.0,STARLINK-5825,PAYLOAD,2023-07-15 19:27:30,15.69923532,0.0003312,69.9991,138.2985,263.0197,97.0622,-7.6325e-06,-1.13e-05,0.0,0 STARLINK-5825,1 55783U 23028AU  23196.81077543 -.00001130  00000-0 -76325-5 0  9994,2 55783  69.9991 138.2985 0003312 263.0197  97.0622 15.69923532 21718,6737.253,91.724,361.349,356.886,0.0
55783.0,STARLINK-5825,PAYLOAD,2023-07-17 02:02:33,15.69931516,0.0003095,69.998,134.7158,262.1073,97.9772,1.1189e-05,1.133e-05,0.0,0 STARLINK-5825,1 55783U 23028AU  23198.08510542  .00001133  00000-0  11189-4 0  9993,2 55783  69.9980 134.7158 0003095 262.1073  97.9772 15.69931516 21918,6737.23,91.724,361.18,357.01,0.0
55783.0,STARLINK-5825,PAYLOAD,2023-07-17 12:44:49,15.69922126,0.0003207,69.9974,133.4625,269.8672,90.2156,1.1033e-05,1.114e-05,0.0,0 STARLINK-5825,1 55783U 23028AU  23198.53112776  .00001114  00000-0  11033-4 0  9997,2 55783  69.9974 133.4625 0003207 269.8672  90.2156 15.69922126 21986,6737.257,91.724,361.282,356.961,0.0
55783.0,STARLINK-5825,PAYLOAD,2023-07-17 23:27:06,15.69912965,0.0003575,69.9978,132.208,268.4543,91.6243,-7.6331e-06,-1.13e-05,0.0,0 STARLINK-5825,1 55783U 23028AU  23198.97715469 -.00001130  00000-0 -76331-5 0  9996,2 55783  69.9978 132.2080 0003575 268.4543  91.6243 15.69912965 22053,6737.283,91.725,361.557,356.739,0.0
55783.0,STARLINK-5825,PAYLOAD,2023-07-18 05:34:05,15.69923201,0.0003299,69.9983,131.4915,265.6102,94.4716,4.6758e-06,3.49e-06,0.0,0 STARLINK-5825,1 55783U 23028AU  23199.23201335  .00000349  00000-0  46758-5 0  9997,2 55783  69.9983 131.4915 0003299 265.6102  94.4716 15.69923201 22095,6737.254,91.724,361.341,356.896,0.0
55783.0,STARLINK-5825,PAYLOAD,2023-07-19 06:02:07,15.69928866,0.0003096,69.9984,128.6252,267.0837,93.0005,-8.8555e-06,-1.277e-05,0.0,0 STARLINK-5825,1 55783U 23028AU  23200.25148133 -.00001277  00000-0 -88555-5 0  9992,2 55783  69.9984 128.6252 0003096 267.0837  93.0005 15.69928866 22250,6737.238,91.724,361.188,357.017,0.0
